[{"OBJECT_NAME":"STARLINK-5009","OBJECT_ID":"2022-119AU","EPOCH":"2026-03-09T22:26:25.234656","MEAN_MOTION":15.08837825,"ECCENTRICITY":0.00015736,"INCLINATION":53.2182,"RA_OF_ASC_NODE":302.9145,"ARG_OF_PERICENTER":81.6237,"MEAN_ANOMALY":278.4934,"EPHEMERIS_TYPE":0,"CLASSIFICATION_TYPE":"U","NORAD_CAT_ID":53928,"ELEMENT_SET_NO":999,"REV_AT_EPOCH":19200,"BSTAR":2.808311e-6,"MEAN_MOTION_DOT":-2.43e-6,"MEAN_MOTION_DDOT":0},{"OBJECT_NAME":"NANOFF B","OBJECT_ID":"2023-185S","EPOCH":"2026-03-09T23:34:31.291104","MEAN_MOTION":15.11549361,"ECCENTRICITY":0.00109129,"INCLINATION":97.5361,"RA_OF_ASC_NODE":137.8575,"ARG_OF_PERICENTER":288.4201,"MEAN_ANOMALY":71.5842,"EPHEMERIS_TYPE":0,"CLASSIFICATION_TYPE":"U","NORAD_CAT_ID":58755,"ELEMENT_SET_NO":999,"REV_AT_EPOCH":11888,"BSTAR":0.00028764283,"MEAN_MOTION_DOT":4.819e-5,"MEAN_MOTION_DDOT":0}]
